NORAD_CAT_ID,OBJECT_NAME,OBJECT_TYPE,EPOCH,MEAN_MOTION,ECCENTRICITY,INCLINATION,RA_OF_ASC_NODE,ARG_OF_PERICENTER,MEAN_ANOMALY,BSTAR,MEAN_MOTION_DOT,MEAN_MOTION_DDOT,TLE_LINE0,TLE_LINE1,TLE_LINE2,SEMIMAJOR_AXIS,PERIOD,APOGEE,PERIGEE,DECAYED
51965.0,STARLINK-3696,PAYLOAD,2023-02-21 02:07:25,15.08859344,0.0001069,53.2154,343.7787,109.725,250.3858,0.0014318,0.00022585,0.0,0 STARLINK-3696,1 51965U 22025K   23052.08849133  .00022585  00000-0  14318-2 0  9996,2 51965  53.2154 343.7787 0001069 109.7250 250.3858 15.08859344 54329,6917.821,95.436,540.426,538.947,0.0
51965.0,STARLINK-3696,PAYLOAD,2023-02-21 19:36:39,15.08858249,0.0001014,53.2153,340.507,104.8511,255.2593,0.0006446,9.991e-05,0.0,0 STARLINK-3696,1 51965U 22025K   23052.81712736  .00009991  00000-0  64460-3 0  9995,2 51965  53.2153 340.5070 0001014 104.8511 255.2593 15.08858249 54439,6917.825,95.436,540.391,538.988,0.0
51965.0,STARLINK-3696,PAYLOAD,2023-02-22 03:33:34,15.08874672,0.0001021,53.2157,339.0212,108.5356,251.5747,0.0010437,0.00016377,0.0,0 STARLINK-3696,1 51965U 22025K   23053.14832014  .00016377  00000-0  10437-2 0  9994,2 51965  53.2157 339.0212 0001021 108.5356 251.5747 15.08874672 54483,6917.774,95.435,540.346,538.933,0.0
51965.0,STARLINK-3696,PAYLOAD,2023-02-22 19:27:26,15.08849193,0.0001894,53.2153,336.0468,105.9474,254.1727,0.0004573,6.999e-05,0.0,0 STARLINK-3696,1 51965U 22025K   23053.81072426  .00006999  00000-0  45730-3 0  9995,2 51965  53.2153 336.0468 0001894 105.9474 254.1727 15.08849193 54587,6917.852,95.437,541.028,538.407,0.0
51965.0,STARLINK-3696,PAYLOAD,2023-02-23 04:59:46,15.08827454,0.0001077,53.2156,334.2629,81.9193,278.1922,0.0016521,0.00026094,0.0,0 STARLINK-3696,1 51965U 22025K   23054.20817620  .00026094  00000-0  16521-2 0  9995,2 51965  53.2156 334.2629 0001077  81.9193 278.1922 15.08827454 54649,6917.919,95.438,540.529,539.039,0.0
51965.0,STARLINK-3696,PAYLOAD,2023-02-24 04:50:32,15.0889485,0.0001057,53.215,329.8021,85.6888,274.4225,0.002289,0.00036385,0.0,0 STARLINK-3696,1 51965U 22025K   23055.20176252  .00036385  00000-0  22890-2 0  9995,2 51965  53.2150 329.8021 0001057  85.6888 274.4225 15.08894850 54794,6917.713,95.434,540.309,538.847,0.0
51965.0,STARLINK-3696,PAYLOAD,2023-02-24 17:33:37,15.088462,0.0001062,53.2147,327.423,102.7132,257.3979,3.6897e-05,3e-06,0.0,0 STARLINK-3696,1 51965U 22025K   23055.73168532  .00000300  00000-0  36897-4 0  9997,2 51965  53.2147 327.4230 0001062 102.7132 257.3979 15.08846200 54876,6917.861,95.437,540.461,538.992,0.0
51965.0,STARLINK-3696,PAYLOAD,2023-02-25 03:05:56,15.08849684,0.0001056,53.2146,325.6386,106.2453,253.8656,0.0013416,0.00021134,0.0,0 STARLINK-3696,1 51965U 22025K   23056.12912623  .00021134  00000-0  13416-2 0  9997,2 51965  53.2146 325.6386 0001056 106.2453 253.8656 15.08849684 53843,6917.851,95.437,540.446,538.985,0.0
51965.0,STARLINK-3696,PAYLOAD,2023-02-26 02:56:44,15.08859247,0.0001151,53.2147,321.1773,92.7161,267.3963,0.0018739,0.00029677,0.0,0 STARLINK-3696,1 51965U 22025K   23057.12273183  .00029677  00000-0  18739-2 0  9992,2 51965  53.2147 321.1773 0001151  92.7161 267.3963 15.08859247 55081,6917.822,95.436,540.483,538.89,0.0
51965.0,STARLINK-3696,PAYLOAD,2023-02-26 17:15:12,15.08854606,0.0001349,53.2139,318.5011,84.4701,275.6445,0.001621,0.00025615,0.0,0 STARLINK-3696,1 51965U 22025K   23057.71889051  .00025615  00000-0  16210-2 0  9994,2 51965  53.2139 318.5011 0001349  84.4701 275.6445 15.08854606 55175,6917.836,95.437,540.634,538.768,0.0
51965.0,STARLINK-3696,PAYLOAD,2023-02-27 02:47:30,15.08877009,0.0001297,53.2137,316.7158,90.2951,269.819,0.0016782,0.00026549,0.0,0 STARLINK-3696,1 51965U 22025K   23058.11632209  .00026549  00000-0  16782-2 0  9991,2 51965  53.2137 316.7158 0001297  90.2951 269.8190 15.08877009 54149,6917.767,95.435,540.53,538.735,0.0
51965.0,STARLINK-3696,PAYLOAD,2023-02-27 17:05:57,15.0891145,9.97e-05,53.2151,314.0395,88.6651,271.4455,0.0028537,0.00045511,0.0,0 STARLINK-3696,1 51965U 22025K   23058.71247059  .00045511  00000-0  28537-2 0  9993,2 51965  53.2151 314.0395 0000997  88.6651 271.4455 15.08911450 54235,6917.662,95.433,540.217,538.837,0.0
51965.0,STARLINK-3696,PAYLOAD,2023-02-28 02:38:15,15.08904982,0.0001207,53.2154,312.2551,100.5195,259.5934,0.0023363,0.00037157,0.0,0 STARLINK-3696,1 51965U 22025K   23059.10990086  .00037157  00000-0  23363-2 0  9991,2 51965  53.2154 312.2551 0001207 100.5195 259.5934 15.08904982 55382,6917.682,95.433,540.382,538.712,0.0
51965.0,STARLINK-3696,PAYLOAD,2023-02-28 21:42:57,15.08746064,0.000147,53.2157,308.6864,141.4331,218.6767,0.00017285,2.457e-05,0.0,0 STARLINK-3696,1 51965U 22025K   23059.90483166  .00002457  00000-0  17285-3 0  9997,2 51965  53.2157 308.6864 0001470 141.4331 218.6767 15.08746064 54417,6918.168,95.443,541.049,539.016,0.0
51965.0,STARLINK-3696,PAYLOAD,2023-02-28 23:18:21,15.08730638,0.0001113,53.2154,308.3896,48.6986,311.4102,0.00031243,4.673e-05,0.0,0 STARLINK-3696,1 51965U 22025K   23059.97108190  .00004673  00000-0  31243-3 0  9997,2 51965  53.2154 308.3896 0001113  48.6986 311.4102 15.08730638 55511,6918.215,95.444,540.85,539.31,0.0
51965.0,STARLINK-3696,PAYLOAD,2023-03-01 21:33:45,15.08832112,8.4e-05,53.2149,304.2246,111.9004,248.2077,0.0032675,0.00052087,0.0,0 STARLINK-3696,1 51965U 22025K   23060.89844772  .00052087  00000-0  32675-2 0  9994,2 51965  53.2149 304.2246 0000840 111.9004 248.2077 15.08832112 54562,6917.904,95.438,540.351,539.188,0.0
51965.0,STARLINK-3696,PAYLOAD,2023-03-02 03:55:17,15.08875752,0.0001432,53.2158,303.0366,38.336,321.7734,0.0031824,0.00050775,0.0,0 STARLINK-3696,1 51965U 22025K   23061.16340239  .00050775  00000-0  31824-2 0  9991,2 51965  53.2158 303.0366 0001432  38.3360 321.7734 15.08875752 55696,6917.771,95.435,540.627,538.645,0.0
51965.0,STARLINK-3696,PAYLOAD,2023-03-02 19:49:17,15.08635262,3.81e-05,53.2155,300.0649,265.7221,94.3727,-0.0012617,-0.00020199,0.0,0 STARLINK-3696,1 51965U 22025K   23061.82589433 -.00020199  00000-0 -12617-2 0  9993,2 51965  53.2155 300.0649 0000381 265.7221  94.3727 15.08635262 54704,6918.506,95.451,540.635,540.108,0.0
51965.0,STARLINK-3696,PAYLOAD,2023-03-03 03:46:28,15.08145531,8.42e-05,53.2152,298.5794,99.6773,260.4314,-0.0097233,-0.0014899,0.0,0 STARLINK-3696,1 51965U 22025K   23062.15727613 -.00148990  00000-0 -97233-2 0  9991,2 51965  53.2152 298.5794 0000842  99.6773 260.4314 15.08145531 55840,6920.004,95.482,542.452,541.286,0.0
51965.0,STARLINK-3696,PAYLOAD,2023-03-03 21:16:35,15.07574496,2.1e-05,53.2146,295.3123,161.0639,199.0361,-0.00051259,-8.156e-05,0.0,0 STARLINK-3696,1 51965U 22025K   23062.88652768 -.00008156  00000-0 -51259-3 0  9997,2 51965  53.2146 295.3123 0000210 161.0639 199.0361 15.07574496 54863,6921.751,95.518,543.762,543.471,0.0
51965.0,STARLINK-3696,PAYLOAD,2023-03-03 22:52:05,15.07290961,0.0001788,53.2157,295.0158,35.1986,324.9123,-0.0082075,-0.00123364,0.0,0 STARLINK-3696,1 51965U 22025K   23062.95284286 -.00123364  00000-0 -82075-2 0  9999,2 51965  53.2157 295.0158 0001788  35.1986 324.9123 15.07290961 55966,6922.619,95.536,545.722,543.246,0.0
51965.0,STARLINK-3696,PAYLOAD,2023-03-04 10:00:01,15.06656635,0.0001305,53.2137,292.9388,82.5122,275.2824,-0.030397,-0.00429575,0.0,0 STARLINK-3696,1 51965U 22025K   23063.41668981 -.00429575  00000-0 -30397-1 0  9991,2 51965  53.2137 292.9388 0001305  82.5122 275.2824 15.06656635 56036,6924.562,95.576,547.331,545.523,0.0
51965.0,STARLINK-3696,PAYLOAD,2023-03-04 14:00:01,15.06516943,0.0001445,53.2135,292.1929,85.3959,96.7725,-0.032586,-0.00457002,0.0,0 STARLINK-3696,1 51965U 22025K   23063.58334491 -.00457002  00000-0 -32586-1 0  9993,2 51965  53.2135 292.1929 0001445  85.3959  96.7725 15.06516943  1304,6924.99,95.585,547.856,545.855,0.0
51965.0,STARLINK-3696,PAYLOAD,2023-03-04 22:00:00,15.06175336,0.0001469,53.2133,290.704,76.3554,114.4281,-0.032085,-0.00446486,0.0,0 STARLINK-3696,1 51965U 22025K   23063.91667824 -.00446486  00000-0 -32085-1 0  9997,2 51965  53.2133 290.7040 0001469  76.3554 114.4281 15.06175336  1309,6926.037,95.606,548.92,546.885,0.0
51965.0,STARLINK-3696,PAYLOAD,2023-03-05 00:00:00,15.06081838,0.0001434,53.2135,290.3316,75.9836,206.8907,-0.029758,-0.004149,0.0,0 STARLINK-3696,1 51965U 22025K   23064.00001157 -.00414900  00000-0 -29758-1 0  9998,2 51965  53.2135 290.3316 0001434  75.9836 206.8907 15.06081838 56127,6926.324,95.612,549.182,547.196,0.0
51965.0,STARLINK-3696,PAYLOAD,2023-03-05 14:00:01,15.05542949,0.0001388,53.2132,287.7231,85.0261,121.7849,-0.033736,-0.0046485,0.0,0 STARLINK-3696,1 51965U 22025K   23064.58334491 -.00464850  00000-0 -33736-1 0  9991,2 51965  53.2132 287.7231 0001388  85.0261 121.7849 15.05542949  1306,6927.977,95.647,550.803,548.88,0.0
51965.0,STARLINK-3696,PAYLOAD,2023-03-05 16:00:00,15.05478244,0.000131,53.2133,287.3512,85.0934,213.608,-0.036161,-0.00495556,0.0,0 STARLINK-3696,1 51965U 22025K   23064.66667824 -.00495556  00000-0 -36161-1 0  9991,2 51965  53.2133 287.3512 0001310  85.0934 213.6080 15.05478244 56222,6928.175,95.651,550.948,549.132,0.0
51965.0,STARLINK-3696,PAYLOAD,2023-03-05 22:00:00,15.05191104,0.0001423,53.2133,286.2363,74.5456,139.7099,-0.031525,-0.00428267,0.0,0 STARLINK-3696,1 51965U 22025K   23064.91667824 -.00428267  00000-0 -31525-1 0  9993,2 51965  53.2133 286.2363 0001423  74.5456 139.7099 15.05191104  1305,6929.056,95.669,551.907,549.935,0.0
51965.0,STARLINK-3696,PAYLOAD,2023-03-06 08:00:01,15.04801678,0.0001242,53.2142,284.3756,77.5091,235.4792,-0.0036535,-0.00052019,0.0,0 STARLINK-3696,1 51965U 22025K   23065.33334491 -.00052019  00000-0 -36535-2 0  9996,2 51965  53.2142 284.3756 0001242  77.5091 235.4792 15.04801678 56326,6930.252,95.694,552.977,551.256,0.0
51965.0,STARLINK-3696,PAYLOAD,2023-03-06 22:00:00,15.04770329,0.0001257,53.2145,281.7743,80.3683,154.3668,-0.00024867,-3.82e-05,0.0,0 STARLINK-3696,1 51965U 22025K   23065.91667824 -.00003820  00000-0 -24867-3 0  9991,2 51965  53.2145 281.7743 0001257  80.3683 154.3668 15.04770329 56410,6930.348,95.696,553.084,551.342,0.0
